NORAD_CAT_ID,OBJECT_NAME,OBJECT_TYPE,EPOCH,MEAN_MOTION,ECCENTRICITY,INCLINATION,RA_OF_ASC_NODE,ARG_OF_PERICENTER,MEAN_ANOMALY,BSTAR,MEAN_MOTION_DOT,MEAN_MOTION_DDOT,TLE_LINE0,TLE_LINE1,TLE_LINE2,SEMIMAJOR_AXIS,PERIOD,APOGEE,PERIGEE,DECAYED
52497.0,STARLINK-3884,PAYLOAD,2022-09-03 14:00:01,15.08852255,0.0001686999999999,53.2204,49.2031,47.8611,144.9483,-0.0011905999999999,-0.00019193,0.0,0 STARLINK-3884,1 52497U 22049AY  22246.58334491 -.00019193  00000-0 -11906-2 0  9991,2 52497  53.2204  49.2031 0001687  47.8611 144.9483 15.08852255  1301,6917.843000000003,95.437,540.875,538.5409999999998,0.0
52497.0,STARLINK-3884,PAYLOAD,2022-09-03 22:00:00,15.08822151,0.0001827,53.2201,47.708,41.9653,162.45,0.0031304,0.00049861,0.0,0 STARLINK-3884,1 52497U 22049AY  22246.91667824  .00049861  00000-0  31304-2 0  9994,2 52497  53.2201  47.7080 0001827  41.9653 162.4500 15.08822151  1309,6917.935,95.439,541.064,538.536,0.0
52497.0,STARLINK-3884,PAYLOAD,2022-09-04 12:00:00,15.08880113,0.0001612,53.2202,45.0879,49.3681,85.3457,-0.0029425999999999,-0.00046866,0.0,0 STARLINK-3884,1 52497U 22049AY  22247.50001157 -.00046866  00000-0 -29426-2 0  9997,2 52497  53.2202  45.0879 0001612  49.3681  85.3457 15.08880113 18980,6917.7580000000025,95.435,540.738,538.508,0.0
52497.0,STARLINK-3884,PAYLOAD,2022-09-04 14:00:01,15.08881339,0.0001631,53.2201,44.7145,46.9688,180.7144,-0.0041584,-0.00065938,0.0,0 STARLINK-3884,1 52497U 22049AY  22247.58335648 -.00065938  00000-0 -41584-2 0  9990,2 52497  53.2201  44.7145 0001631  46.9688 180.7144 15.08881339  1304,6917.754,95.435,540.747,538.491,0.0
52497.0,STARLINK-3884,PAYLOAD,2022-09-04 20:00:01,15.0883417,0.0001781,53.22,43.5933,41.7422,104.6055,0.0012499,0.00019657,0.0,0 STARLINK-3884,1 52497U 22049AY  22247.83334491  .00019657  00000-0  12499-2 0  9991,2 52497  53.2200  43.5933 0001781  41.7422 104.6055 15.08834170  1307,6917.898,95.438,540.995,538.531,0.0
52497.0,STARLINK-3884,PAYLOAD,2022-09-05 04:00:00,15.08838198,0.0001652,53.2197,42.0955,46.3183,111.6321,-0.00065429,-0.00010685,0.0,0 STARLINK-3884,1 52497U 22049AY  22248.16667824 -.00010685  00000-0 -65429-3 0  9993,2 52497  53.2197  42.0955 0001652  46.3183 111.6321 15.08838198 19084,6917.886,95.438,540.894,538.6080000000002,0.0
52497.0,STARLINK-3884,PAYLOAD,2022-09-05 14:00:01,15.088615,0.0001692,53.2195,40.2258,48.2552,214.1725,-0.0022715,-0.00036279,0.0,0 STARLINK-3884,1 52497U 22049AY  22248.58334491 -.00036279  00000-0 -22715-2 0  9997,2 52497  53.2195  40.2258 0001692  48.2552 214.1725 15.08861500  1309,6917.815,95.436,540.85,538.509,0.0
52497.0,STARLINK-3884,PAYLOAD,2022-09-05 22:00:00,15.08827106,0.0001795,53.2191,38.7303,42.3004,231.7294,-0.0012988,-0.00020892,0.0,0 STARLINK-3884,1 52497U 22049AY  22248.91667824 -.00020892  00000-0 -12988-2 0  9998,2 52497  53.2191  38.7303 0001795  42.3004 231.7294 15.08827106  1309,6917.92,95.438,541.0269999999998,538.543,0.0
52497.0,STARLINK-3884,PAYLOAD,2022-09-06 12:00:00,15.08818359,0.0001726,53.2193,36.1105,51.1205,153.1374,-0.00049828,-8.205e-05,0.0,0 STARLINK-3884,1 52497U 22049AY  22249.50001157 -.00008205  00000-0 -49828-3 0  9993,2 52497  53.2193  36.1105 0001726  51.1205 153.1374 15.08818359 19280,6917.946999999999,95.439,541.006,538.618,0.0
52497.0,STARLINK-3884,PAYLOAD,2022-09-06 14:00:01,15.08821546,0.0001773,53.2192,35.7369,48.7199,248.4286,-0.0011353,-0.00018302,0.0,0 STARLINK-3884,1 52497U 22049AY  22249.58334491 -.00018302  00000-0 -11353-2 0  9991,2 52497  53.2192  35.7369 0001773  48.7199 248.4286 15.08821546  1308,6917.937,95.439,541.028,538.575,0.0
52497.0,STARLINK-3884,PAYLOAD,2022-09-06 22:00:00,15.08808753,0.0001872,53.2189,34.2413,43.3858,265.3258,0.0017823,0.00028167,0.0,0 STARLINK-3884,1 52497U 22049AY  22249.91667824  .00028167  00000-0  17823-2 0  9993,2 52497  53.2189  34.2413 0001872  43.3858 265.3258 15.08808753  1303,6917.976,95.44,541.136,538.5459999999998,0.0
52497.0,STARLINK-3884,PAYLOAD,2022-09-07 14:00:01,15.08846354,0.0001865999999999,53.2192,31.2479,48.0144,283.842,-0.0011579,-0.00018672,0.0,0 STARLINK-3884,1 52497U 22049AY  22250.58334491 -.00018672  00000-0 -11579-2 0  9993,2 52497  53.2192  31.2479 0001866  48.0144 283.8420 15.08846354 19459,6917.861,95.437,541.0169999999998,538.435,0.0
52497.0,STARLINK-3884,PAYLOAD,2022-09-07 22:00:00,15.08837977,0.0001947,53.2192,29.7521,43.2681,300.1797,0.0012179,0.00019147,0.0,0 STARLINK-3884,1 52497U 22049AY  22250.91667824  .00019147  00000-0  12179-2 0  9992,2 52497  53.2192  29.7521 0001947  43.2681 300.1797 15.08837977  1308,6917.887,95.438,541.0980000000002,538.405,0.0
52497.0,STARLINK-3884,PAYLOAD,2022-09-08 06:00:00,15.08828646,0.0001784,53.2195,28.254,48.5841,306.4770000000001,0.0034875,0.00055637,0.0,0 STARLINK-3884,1 52497U 22049AY  22251.25001157  .00055637  00000-0  34875-2 0  9992,2 52497  53.2195  28.2540 0001784  48.5841 306.4770 15.08828646 19550,6917.915,95.438,541.014,538.5459999999998,0.0
52497.0,STARLINK-3884,PAYLOAD,2022-09-08 14:00:01,15.08877748,0.0001896,53.2198,26.7588,45.5165,321.147,-0.0041324,-0.00065526,0.0,0 STARLINK-3884,1 52497U 22049AY  22251.58334491 -.00065526  00000-0 -41324-2 0  9995,2 52497  53.2198  26.7588 0001896  45.5165 321.1470 15.08877748  1300,6917.765,95.435,540.942,538.318,0.0
52497.0,STARLINK-3884,PAYLOAD,2022-09-08 22:00:00,15.08849122,0.0001916999999999,53.2198,25.2628,39.6738,338.6,0.00011471,1.538e-05,0.0,0 STARLINK-3884,1 52497U 22049AY  22251.91667824  .00001538  00000-0  11471-3 0  9993,2 52497  53.2198  25.2628 0001917  39.6738 338.6000 15.08849122 19657,6917.853,95.437,541.044,538.391,0.0
52497.0,STARLINK-3884,PAYLOAD,2022-09-09 14:00:01,15.08850417,0.0001848,53.2205,22.2699,40.6724,0.8004,-0.001161,-0.00018723,0.0,0 STARLINK-3884,1 52497U 22049AY  22252.58334491 -.00018723  00000-0 -11610-2 0  9998,2 52497  53.2205  22.2699 0001848  40.6724   0.8004 15.08850417  1305,6917.849,95.437,540.992,538.435,0.0
52497.0,STARLINK-3884,PAYLOAD,2022-09-09 20:00:01,15.08836372,0.0001902,53.2205,21.1484,36.1069,284.068,0.00033672,5.074e-05,0.0,0 STARLINK-3884,1 52497U 22049AY  22252.83334491  .00005074  00000-0  33672-3 0  9992,2 52497  53.2205  21.1484 0001902  36.1069 284.0680 15.08836372 19790,6917.891,95.438,541.072,538.441,0.0
52497.0,STARLINK-3884,PAYLOAD,2022-09-09 22:00:00,15.08851817,0.0001883,53.2205,20.7739,35.6508,17.4187,-0.001978,-0.00031641,0.0,0 STARLINK-3884,1 52497U 22049AY  22252.91667824 -.00031641  00000-0 -19780-2 0  9994,2 52497  53.2205  20.7739 0001883  35.6508  17.4187 15.08851817  1307,6917.844,95.437,541.012,538.4069999999998,0.0
52497.0,STARLINK-3884,PAYLOAD,2022-09-10 14:00:01,15.08860151,0.0001855,53.221,17.7814,39.0013,37.2553,-0.0023576,-0.00037635,0.0,0 STARLINK-3884,1 52497U 22049AY  22253.58334491 -.00037635  00000-0 -23576-2 0  9996,2 52497  53.2210  17.7814 0001855  39.0013  37.2553 15.08860151  1309,6917.819,95.436,540.967,538.401,0.0
52497.0,STARLINK-3884,PAYLOAD,2022-09-10 22:00:00,15.08857635,0.0001976999999999,53.2209,16.2851,38.2657,49.5995,-0.0033336,-0.00052979,0.0,0 STARLINK-3884,1 52497U 22049AY  22253.91667824 -.00052979  00000-0 -33336-2 0  9995,2 52497  53.2209  16.2851 0001977  38.2657  49.5995 15.08857635  1301,6917.826,95.436,541.059,538.3240000000002,0.0
52497.0,STARLINK-3884,PAYLOAD,2022-09-11 04:00:00,15.08798837,0.0001836,53.2211,15.1617,44.6768,321.8977,0.0020378,0.00032256,0.0,0 STARLINK-3884,1 52497U 22049AY  22254.16667824  .00032256  00000-0  20378-2 0  9999,2 52497  53.2211  15.1617 0001836  44.6768 321.8977 15.08798837 19998,6918.005999999999,95.44,541.141,538.601,0.0
52497.0,STARLINK-3884,PAYLOAD,2022-09-11 14:00:01,15.08832059,0.0002005999999999,53.2211,13.293,43.6854,67.3452,-0.00059052,-9.672e-05,0.0,0 STARLINK-3884,1 52497U 22049AY  22254.58334491 -.00009672  00000-0 -59052-3 0  9996,2 52497  53.2211  13.2930 0002006  43.6854  67.3452 15.08832059  1301,6917.905,95.438,541.1569999999998,538.382,0.0
52497.0,STARLINK-3884,PAYLOAD,2022-09-11 22:00:00,15.08855844,0.0002005999999999,53.2208,11.7967,40.8847,81.7213,-0.0023006,-0.00036733,0.0,0 STARLINK-3884,1 52497U 22049AY  22254.91667824 -.00036733  00000-0 -23006-2 0  9999,2 52497  53.2208  11.7967 0002006  40.8847  81.7213 15.08855844  1303,6917.831999999999,95.437,541.085,538.309,0.0
52497.0,STARLINK-3884,PAYLOAD,2022-09-12 04:00:00,15.08811074,0.0001774,53.221,10.6733,44.203,357.1173,0.0020201,0.00031983,0.0,0 STARLINK-3884,1 52497U 22049AY  22255.16667824  .00031983  00000-0  20201-2 0  9991,2 52497  53.2210  10.6733 0001774  44.2030 357.1173 15.08811074 20143,6917.969,95.439,541.061,538.607,0.0
52497.0,STARLINK-3884,PAYLOAD,2022-09-12 14:00:01,15.0883312,0.0002124,53.2205,8.804,45.9862,99.8351,-0.00022487,-3.865e-05,0.0,0 STARLINK-3884,1 52497U 22049AY  22255.58334491 -.00003865  00000-0 -22487-3 0  9997,2 52497  53.2205   8.8040 0002124  45.9862  99.8351 15.08833120  1309,6917.901,95.438,541.236,538.297,0.0
52497.0,STARLINK-3884,PAYLOAD,2022-09-12 22:00:00,15.088615099999998,0.0002147,53.2188,7.3059,41.81800000000001,115.5848,-0.0051405,-0.00081228,0.0,0 STARLINK-3884,1 52497U 22049AY  22255.91667824 -.00081228  00000-0 -51405-2 0  9993,2 52497  53.2188   7.3059 0002147  41.8180 115.5848 15.08861510  1307,6917.815,95.436,541.165,538.194,0.0
52497.0,STARLINK-3884,PAYLOAD,2022-09-13 06:00:00,15.08818847,0.0001911999999999,53.2205,5.8108,49.0041,120.023,0.0029171999999999,0.00046419,0.0,0 STARLINK-3884,1 52497U 22049AY  22256.25001157  .00046419  00000-0  29172-2 0  9999,2 52497  53.2205   5.8108 0001912  49.0041 120.0230 15.08818847 20302,6917.945,95.439,541.133,538.487,0.0
52497.0,STARLINK-3884,PAYLOAD,2022-09-13 14:00:01,15.0885826,0.0002061999999999,53.2203,4.3163,43.6787,136.9373,-0.0018059999999999,-0.00028931,0.0,0 STARLINK-3884,1 52497U 22049AY  22256.58334491 -.00028931  00000-0 -18060-2 0  9990,2 52497  53.2203   4.3163 0002062  43.6787 136.9373 15.08858260  1305,6917.825,95.436,541.116,538.263,0.0
